SILVERSAT               
1 66909U 98067XV  26113.26586731  .05829302  12202-4  12810-2 0  9995
2 66909  51.6041 191.1033 0009681 337.0894  22.9695 16.29518213 22279
ISS OBJECT XW           
1 66910U 98067XW  26112.94022942  .00274562  00000+0  10068-2 0  9998
2 66910  51.6160 197.2849 0011238 342.8473  17.2150 15.86944185 22167
ISS OBJECT XY           
1 66912U 98067XY  26113.24330255  .00105546  00000+0  73470-3 0  9995
2 66912  51.6234 200.1346 0007685 341.2314  18.8401 15.73514201 22147
KNACKSAT-2              
1 67683U 98067XZ  26112.52999186  .00027970  00000+0  40839-3 0  9992
2 67683  51.6302 213.4096 0012104 351.5455   8.5330 15.55355324 11605
CORAL                   
1 67684U 98067YA  26112.50328663  .00066972  00000+0  74717-3 0  9994
2 67684  51.6270 211.7252 0015880 344.4407  15.6097 15.62013258 11623
GXIBA-1                 
1 67685U 98067YB  26112.50919874  .00032459  00000+0  45849-3 0  9992
2 67685  51.6288 213.2705 0014010 348.6455  11.4218 15.56146003 11601
UITMSAT-2               
1 67686U 98067YC  26112.53874384  .00042829  00000+0  56953-3 0  9992
2 67686  51.6284 212.7201 0010977 329.4470  30.5882 15.57678884 11613
HMU-SAT2                
1 67687U 98067YD  26113.28957002  .00032978  00000+0  47131-3 0  9997
2 67687  51.6304 209.4886 0010382 333.9754  26.0714 15.55870677 11643
LEOPARD                 
1 67688U 98067YE  26112.49035446  .00037986  00000+0  51970-3 0  9999
2 67688  51.6300 213.1478 0010625 328.7653  31.2707 15.56976601 11521
CREW DRAGON 12          
1 67796U 26031A   26113.16764225  .00008377  00000+0  16051-3 0  9993
2 67796  51.6318 212.4157 0006794 340.3365  19.7360 15.48903747563359
PROGRESS-MS 33          
1 68319U 26058A   26113.16764225  .00008377  00000+0  16051-3 0  9994
2 68319  51.6318 212.4157 0006794 340.3365  19.7360 15.48903747  4755
CYGNUS NG-24            
1 68689U 26079A   26113.16764225  .00008377  00000+0  16051-3 0  9997
2 68689  51.6318 212.4157 0006794 340.3365  19.7360 15.48903747  1831
