[{"OBJECT_NAME":"SILVERSAT","OBJECT_ID":"1998-067XV","EPOCH":"2026-04-23T06:22:50.935584","MEAN_MOTION":16.29518213,"ECCENTRICITY":0.00096814,"INCLINATION":51.6041,"RA_OF_ASC_NODE":191.1033,"ARG_OF_PERICENTER":337.0894,"MEAN_ANOMALY":22.9695,"EPHEMERIS_TYPE":0,"CLASSIFICATION_TYPE":"U","NORAD_CAT_ID":66909,"ELEMENT_SET_NO":999,"REV_AT_EPOCH":2227,"BSTAR":0.0012809662,"MEAN_MOTION_DOT":0.05829302,"MEAN_MOTION_DDOT":1.2201676e-5},{"OBJECT_NAME":"ISS OBJECT XW","OBJECT_ID":"1998-067XW","EPOCH":"2026-04-22T22:33:55.821888","MEAN_MOTION":15.86944185,"ECCENTRICITY":0.0011238,"INCLINATION":51.616,"RA_OF_ASC_NODE":197.2849,"ARG_OF_PERICENTER":342.8473,"MEAN_ANOMALY":17.215,"EPHEMERIS_TYPE":0,"CLASSIFICATION_TYPE":"U","NORAD_CAT_ID":66910,"ELEMENT_SET_NO":999,"REV_AT_EPOCH":2216,"BSTAR":0.0010068,"MEAN_MOTION_DOT":0.00274562,"MEAN_MOTION_DDOT":0},{"OBJECT_NAME":"ISS OBJECT XY","OBJECT_ID":"1998-067XY","EPOCH":"2026-04-23T05:50:21.340320","MEAN_MOTION":15.73514201,"ECCENTRICITY":0.00076852,"INCLINATION":51.6234,"RA_OF_ASC_NODE":200.1346,"ARG_OF_PERICENTER":341.2314,"MEAN_ANOMALY":18.8401,"EPHEMERIS_TYPE":0,"CLASSIFICATION_TYPE":"U","NORAD_CAT_ID":66912,"ELEMENT_SET_NO":999,"REV_AT_EPOCH":2214,"BSTAR":0.0007346951,"MEAN_MOTION_DOT":0.00105546,"MEAN_MOTION_DDOT":0},{"OBJECT_NAME":"KNACKSAT-2","OBJECT_ID":"1998-067XZ","EPOCH":"2026-04-22T12:43:11.296704","MEAN_MOTION":15.55355324,"ECCENTRICITY":0.00121049,"INCLINATION":51.6302,"RA_OF_ASC_NODE":213.4096,"ARG_OF_PERICENTER":351.5455,"MEAN_ANOMALY":8.533,"EPHEMERIS_TYPE":0,"CLASSIFICATION_TYPE":"U","NORAD_CAT_ID":67683,"ELEMENT_SET_NO":999,"REV_AT_EPOCH":1160,"BSTAR":0.0004083949,"MEAN_MOTION_DOT":0.0002797,"MEAN_MOTION_DDOT":0},{"OBJECT_NAME":"CORAL","OBJECT_ID":"1998-067YA","EPOCH":"2026-04-22T12:04:43.964832","MEAN_MOTION":15.62013258,"ECCENTRICITY":0.001588,"INCLINATION":51.627,"RA_OF_ASC_NODE":211.7252,"ARG_OF_PERICENTER":344.4407,"MEAN_ANOMALY":15.6097,"EPHEMERIS_TYPE":0,"CLASSIFICATION_TYPE":"U","NORAD_CAT_ID":67684,"ELEMENT_SET_NO":999,"REV_AT_EPOCH":1162,"BSTAR":0.00074717,"MEAN_MOTION_DOT":0.00066972,"MEAN_MOTION_DDOT":0},{"OBJECT_NAME":"GXIBA-1","OBJECT_ID":"1998-067YB","EPOCH":"2026-04-22T12:13:14.771136","MEAN_MOTION":15.56146003,"ECCENTRICITY":0.001401,"INCLINATION":51.6288,"RA_OF_ASC_NODE":213.2705,"ARG_OF_PERICENTER":348.6455,"MEAN_ANOMALY":11.4218,"EPHEMERIS_TYPE":0,"CLASSIFICATION_TYPE":"U","NORAD_CAT_ID":67685,"ELEMENT_SET_NO":999,"REV_AT_EPOCH":1160,"BSTAR":0.00045849,"MEAN_MOTION_DOT":0.00032459,"MEAN_MOTION_DDOT":0},{"OBJECT_NAME":"UITMSAT-2","OBJECT_ID":"1998-067YC","EPOCH":"2026-04-22T12:55:47.467776","MEAN_MOTION":15.57678884,"ECCENTRICITY":0.0010977,"INCLINATION":51.6284,"RA_OF_ASC_NODE":212.7201,"ARG_OF_PERICENTER":329.447,"MEAN_ANOMALY":30.5882,"EPHEMERIS_TYPE":0,"CLASSIFICATION_TYPE":"U","NORAD_CAT_ID":67686,"ELEMENT_SET_NO":999,"REV_AT_EPOCH":1161,"BSTAR":0.00056953,"MEAN_MOTION_DOT":0.00042829,"MEAN_MOTION_DDOT":0},{"OBJECT_NAME":"HMU-SAT2","OBJECT_ID":"1998-067YD","EPOCH":"2026-04-23T06:56:58.849728","MEAN_MOTION":15.55870677,"ECCENTRICITY":0.00103825,"INCLINATION":51.6304,"RA_OF_ASC_NODE":209.4886,"ARG_OF_PERICENTER":333.9754,"MEAN_ANOMALY":26.0714,"EPHEMERIS_TYPE":0,"CLASSIFICATION_TYPE":"U","NORAD_CAT_ID":67687,"ELEMENT_SET_NO":999,"REV_AT_EPOCH":1164,"BSTAR":0.00047131415,"MEAN_MOTION_DOT":0.00032978,"MEAN_MOTION_DDOT":0},{"OBJECT_NAME":"LEOPARD","OBJECT_ID":"1998-067YE","EPOCH":"2026-04-22T11:46:06.625344","MEAN_MOTION":15.56976601,"ECCENTRICITY":0.0010625,"INCLINATION":51.63,"RA_OF_ASC_NODE":213.1478,"ARG_OF_PERICENTER":328.7653,"MEAN_ANOMALY":31.2707,"EPHEMERIS_TYPE":0,"CLASSIFICATION_TYPE":"U","NORAD_CAT_ID":67688,"ELEMENT_SET_NO":999,"REV_AT_EPOCH":1152,"BSTAR":0.0005197,"MEAN_MOTION_DOT":0.00037986,"MEAN_MOTION_DDOT":0},{"OBJECT_NAME":"CREW DRAGON 12","OBJECT_ID":"2026-031A","EPOCH":"2026-04-23T04:01:24.290400","MEAN_MOTION":15.48903747,"ECCENTRICITY":0.00067946,"INCLINATION":51.6318,"RA_OF_ASC_NODE":212.4157,"ARG_OF_PERICENTER":340.3365,"MEAN_ANOMALY":19.736,"EPHEMERIS_TYPE":0,"CLASSIFICATION_TYPE":"U","NORAD_CAT_ID":67796,"ELEMENT_SET_NO":999,"REV_AT_EPOCH":56335,"BSTAR":0.0001605142,"MEAN_MOTION_DOT":8.377e-5,"MEAN_MOTION_DDOT":0},{"OBJECT_NAME":"PROGRESS-MS 33","OBJECT_ID":"2026-058A","EPOCH":"2026-04-23T04:01:24.290400","MEAN_MOTION":15.48903747,"ECCENTRICITY":0.00067946,"INCLINATION":51.6318,"RA_OF_ASC_NODE":212.4157,"ARG_OF_PERICENTER":340.3365,"MEAN_ANOMALY":19.736,"EPHEMERIS_TYPE":0,"CLASSIFICATION_TYPE":"U","NORAD_CAT_ID":68319,"ELEMENT_SET_NO":999,"REV_AT_EPOCH":475,"BSTAR":0.0001605142,"MEAN_MOTION_DOT":8.377e-5,"MEAN_MOTION_DDOT":0},{"OBJECT_NAME":"CYGNUS NG-24","OBJECT_ID":"2026-079A","EPOCH":"2026-04-23T04:01:24.290400","MEAN_MOTION":15.48903747,"ECCENTRICITY":0.00067946,"INCLINATION":51.6318,"RA_OF_ASC_NODE":212.4157,"ARG_OF_PERICENTER":340.3365,"MEAN_ANOMALY":19.736,"EPHEMERIS_TYPE":0,"CLASSIFICATION_TYPE":"U","NORAD_CAT_ID":68689,"ELEMENT_SET_NO":999,"REV_AT_EPOCH":183,"BSTAR":0.0001605142,"MEAN_MOTION_DOT":8.377e-5,"MEAN_MOTION_DDOT":0}]
